[{"OBJECT_NAME":"SHIYAN-24C 03","OBJECT_ID":"2023-206C","EPOCH":"2026-03-09T21:23:43.281888","MEAN_MOTION":14.97896938,"ECCENTRICITY":0.0002411,"INCLINATION":97.3969,"RA_OF_ASC_NODE":41.7507,"ARG_OF_PERICENTER":66.6237,"MEAN_ANOMALY":293.524,"EPHEMERIS_TYPE":0,"CLASSIFICATION_TYPE":"U","NORAD_CAT_ID":58652,"ELEMENT_SET_NO":999,"REV_AT_EPOCH":12043,"BSTAR":0.00011928,"MEAN_MOTION_DOT":1.35e-5,"MEAN_MOTION_DDOT":0},{"OBJECT_NAME":"STARLINK-33968","OBJECT_ID":"2025-094V","EPOCH":"2026-03-09T20:31:38.371872","MEAN_MOTION":14.9833437,"ECCENTRICITY":0.00030077,"INCLINATION":70.0024,"RA_OF_ASC_NODE":234.2086,"ARG_OF_PERICENTER":268.4679,"MEAN_ANOMALY":91.6135,"EPHEMERIS_TYPE":0,"CLASSIFICATION_TYPE":"U","NORAD_CAT_ID":63883,"ELEMENT_SET_NO":999,"REV_AT_EPOCH":4722,"BSTAR":0.0003243282,"MEAN_MOTION_DOT":3.779e-5,"MEAN_MOTION_DDOT":0}]
